ONEWEB-0136             
1 47282U 20100AA  24158.47172422  .00000488  00000+0  13193-2 0  9993
2 47282  87.8933 138.1198 0002497  77.7562 282.3847 13.12575002167509
ONEWEB-0137             
1 47283U 20100AB  24158.50553336 -.00000423  00000+0 -12092-2 0  9993
2 47283  87.8927 138.1381 0001961  82.5795 277.5557 13.12501875167415
ONEWEB-0138             
1 47284U 20100AC  24158.48461942  .00000293  00000+0  77669-3 0  9997
2 47284  87.8927 138.1548 0002107  82.3088 277.8279 13.12545307167497
ONEWEB-0139             
1 47285U 20100AD  24158.45720926  .00000238  00000+0  62751-3 0  9990
2 47285  87.8933 138.1333 0002125  85.4112 274.7259 13.12378275167569
ONEWEB-0140             
1 47286U 20100AE  24158.47819122  .00000433  00000+0  11661-2 0  9990
2 47286  87.8928 138.1316 0002146  82.3027 277.8345 13.12558773167539
ONEWEB-0141             
1 47287U 20100AF  24158.44564111  .00033431  00000+0  94225-1 0  9993
2 47287  87.8882 138.1519 0000788 130.5409 229.5788 13.11217245167512
ONEWEB-0142             
1 47288U 20100AG  24158.49184672 -.00000031  00000+0 -12112-3 0  9998
2 47288  87.8928 138.1211 0001957  78.4869 281.6479 13.12528716167517
ONEWEB-0143             
1 47289U 20100AH  24158.44541150 -.00000211  00000+0 -62173-3 0  9994
2 47289  87.8929 138.1507 0002048  87.1908 272.9455 13.12473118167488
